[{"OBJECT_NAME":"ONEWEB-0137","OBJECT_ID":"2020-100AB","EPOCH":"2025-10-19T18:33:58.429152","MEAN_MOTION":13.12441898,"ECCENTRICITY":0.00017587,"INCLINATION":87.8961,"RA_OF_ASC_NODE":38.4083,"ARG_OF_PERICENTER":94.6988,"MEAN_ANOMALY":265.4342,"EPHEMERIS_TYPE":0,"CLASSIFICATION_TYPE":"U","NORAD_CAT_ID":47283,"ELEMENT_SET_NO":999,"REV_AT_EPOCH":23303,"BSTAR":-0.00078570219,"MEAN_MOTION_DOT":-2.7e-6,"MEAN_MOTION_DDOT":0},{"OBJECT_NAME":"ONEWEB-0138","OBJECT_ID":"2020-100AC","EPOCH":"2025-10-19T14:24:03.841344","MEAN_MOTION":13.12442666,"ECCENTRICITY":0.00019086,"INCLINATION":87.8963,"RA_OF_ASC_NODE":38.4522,"ARG_OF_PERICENTER":105.346,"MEAN_ANOMALY":254.788,"EPHEMERIS_TYPE":0,"CLASSIFICATION_TYPE":"U","NORAD_CAT_ID":47284,"ELEMENT_SET_NO":999,"REV_AT_EPOCH":23309,"BSTAR":0.001227413,"MEAN_MOTION_DOT":4.54e-6,"MEAN_MOTION_DDOT":0},{"OBJECT_NAME":"ONEWEB-0139","OBJECT_ID":"2020-100AD","EPOCH":"2025-10-19T08:01:10.360416","MEAN_MOTION":13.12446058,"ECCENTRICITY":0.00017005,"INCLINATION":87.8961,"RA_OF_ASC_NODE":38.4951,"ARG_OF_PERICENTER":102.4652,"MEAN_ANOMALY":257.6667,"EPHEMERIS_TYPE":0,"CLASSIFICATION_TYPE":"U","NORAD_CAT_ID":47285,"ELEMENT_SET_NO":999,"REV_AT_EPOCH":23313,"BSTAR":-0.00089288239,"MEAN_MOTION_DOT":-3.09e-6,"MEAN_MOTION_DDOT":0},{"OBJECT_NAME":"ONEWEB-0140","OBJECT_ID":"2020-100AE","EPOCH":"2025-10-19T17:54:17.107776","MEAN_MOTION":13.12443741,"ECCENTRICITY":0.00018296,"INCLINATION":87.8964,"RA_OF_ASC_NODE":38.399,"ARG_OF_PERICENTER":104.1801,"MEAN_ANOMALY":255.9531,"EPHEMERIS_TYPE":0,"CLASSIFICATION_TYPE":"U","NORAD_CAT_ID":47286,"ELEMENT_SET_NO":999,"REV_AT_EPOCH":23315,"BSTAR":0.0012993893,"MEAN_MOTION_DOT":4.8e-6,"MEAN_MOTION_DDOT":0},{"OBJECT_NAME":"ONEWEB-0141","OBJECT_ID":"2020-100AF","EPOCH":"2025-10-19T08:00:46.752480","MEAN_MOTION":13.12435884,"ECCENTRICITY":0.00017535,"INCLINATION":87.8957,"RA_OF_ASC_NODE":38.4932,"ARG_OF_PERICENTER":90.0112,"MEAN_ANOMALY":270.1218,"EPHEMERIS_TYPE":0,"CLASSIFICATION_TYPE":"U","NORAD_CAT_ID":47287,"ELEMENT_SET_NO":999,"REV_AT_EPOCH":23308,"BSTAR":-0.0010220246,"MEAN_MOTION_DOT":-3.55e-6,"MEAN_MOTION_DDOT":0},{"OBJECT_NAME":"ONEWEB-0142","OBJECT_ID":"2020-100AG","EPOCH":"2025-10-19T16:53:43.900512","MEAN_MOTION":13.12444092,"ECCENTRICITY":0.00019796,"INCLINATION":87.8967,"RA_OF_ASC_NODE":38.4396,"ARG_OF_PERICENTER":92.2501,"MEAN_ANOMALY":267.8855,"EPHEMERIS_TYPE":0,"CLASSIFICATION_TYPE":"U","NORAD_CAT_ID":47288,"ELEMENT_SET_NO":999,"REV_AT_EPOCH":23312,"BSTAR":-0.0009689256,"MEAN_MOTION_DOT":-3.36e-6,"MEAN_MOTION_DDOT":0},{"OBJECT_NAME":"ONEWEB-0143","OBJECT_ID":"2020-100AH","EPOCH":"2025-10-19T17:07:33.101184","MEAN_MOTION":13.12443967,"ECCENTRICITY":0.00016674,"INCLINATION":87.8965,"RA_OF_ASC_NODE":38.4338,"ARG_OF_PERICENTER":101.717,"MEAN_ANOMALY":258.4146,"EPHEMERIS_TYPE":0,"CLASSIFICATION_TYPE":"U","NORAD_CAT_ID":47289,"ELEMENT_SET_NO":999,"REV_AT_EPOCH":23310,"BSTAR":-0.0011584788,"MEAN_MOTION_DOT":-4.04e-6,"MEAN_MOTION_DDOT":0},{"OBJECT_NAME":"ONEWEB-0144","OBJECT_ID":"2020-100AJ","EPOCH":"2025-10-19T07:18:58.960512","MEAN_MOTION":13.12446467,"ECCENTRICITY":0.00020373,"INCLINATION":87.8956,"RA_OF_ASC_NODE":38.4871,"ARG_OF_PERICENTER":102.1888,"MEAN_ANOMALY":257.9469,"EPHEMERIS_TYPE":0,"CLASSIFICATION_TYPE":"U","NORAD_CAT_ID":47290,"ELEMENT_SET_NO":999,"REV_AT_EPOCH":23297,"BSTAR":0.00013672115,"MEAN_MOTION_DOT":6.2e-7,"MEAN_MOTION_DDOT":0},{"OBJECT_NAME":"ONEWEB-0145","OBJECT_ID":"2020-100AK","EPOCH":"2025-10-19T17:35:35.515680","MEAN_MOTION":13.12444481,"ECCENTRICITY":0.00017877,"INCLINATION":87.8966,"RA_OF_ASC_NODE":38.4363,"ARG_OF_PERICENTER":101.7468,"MEAN_ANOMALY":258.3861,"EPHEMERIS_TYPE":0,"CLASSIFICATION_TYPE":"U","NORAD_CAT_ID":47291,"ELEMENT_SET_NO":999,"REV_AT_EPOCH":23322,"BSTAR":0.00040380769,"MEAN_MOTION_DOT":1.58e-6,"MEAN_MOTION_DDOT":0},{"OBJECT_NAME":"ONEWEB-0146","OBJECT_ID":"2020-100AL","EPOCH":"2025-10-19T17:30:55.149408","MEAN_MOTION":13.12444615,"ECCENTRICITY":0.00013939,"INCLINATION":87.8966,"RA_OF_ASC_NODE":38.4238,"ARG_OF_PERICENTER":107.0556,"MEAN_ANOMALY":253.0725,"EPHEMERIS_TYPE":0,"CLASSIFICATION_TYPE":"U","NORAD_CAT_ID":47292,"ELEMENT_SET_NO":999,"REV_AT_EPOCH":23313,"BSTAR":-6.5278321e-5,"MEAN_MOTION_DOT":-1.1e-7,"MEAN_MOTION_DDOT":0},{"OBJECT_NAME":"ONEWEB-0147","OBJECT_ID":"2020-100AM","EPOCH":"2025-10-19T16:41:51.453024","MEAN_MOTION":13.12441846,"ECCENTRICITY":0.00018686,"INCLINATION":87.8961,"RA_OF_ASC_NODE":38.4084,"ARG_OF_PERICENTER":108.4255,"MEAN_ANOMALY":251.7077,"EPHEMERIS_TYPE":0,"CLASSIFICATION_TYPE":"U","NORAD_CAT_ID":47293,"ELEMENT_SET_NO":999,"REV_AT_EPOCH":23302,"BSTAR":-0.0010003041,"MEAN_MOTION_DOT":-3.47e-6,"MEAN_MOTION_DDOT":0},{"OBJECT_NAME":"ONEWEB-0115","OBJECT_ID":"2021-025A","EPOCH":"2025-10-19T21:52:39.847584","MEAN_MOTION":13.13470917,"ECCENTRICITY":0.0001782,"INCLINATION":87.9052,"RA_OF_ASC_NODE":7.9616,"ARG_OF_PERICENTER":100.8955,"MEAN_ANOMALY":259.2375,"EPHEMERIS_TYPE":0,"CLASSIFICATION_TYPE":"U","NORAD_CAT_ID":48042,"ELEMENT_SET_NO":999,"REV_AT_EPOCH":22205,"BSTAR":0.00032443597,"MEAN_MOTION_DOT":1.31e-6,"MEAN_MOTION_DDOT":0},{"OBJECT_NAME":"ONEWEB-0152","OBJECT_ID":"2021-025B","EPOCH":"2025-10-19T05:44:54.759552","MEAN_MOTION":13.13469928,"ECCENTRICITY":0.00017542,"INCLINATION":87.9041,"RA_OF_ASC_NODE":8.1069,"ARG_OF_PERICENTER":104.2083,"MEAN_ANOMALY":255.9241,"EPHEMERIS_TYPE":0,"CLASSIFICATION_TYPE":"U","NORAD_CAT_ID":48043,"ELEMENT_SET_NO":999,"REV_AT_EPOCH":22192,"BSTAR":-0.00072039955,"MEAN_MOTION_DOT":-2.5e-6,"MEAN_MOTION_DDOT":0},{"OBJECT_NAME":"ONEWEB-0153","OBJECT_ID":"2021-025C","EPOCH":"2025-10-19T21:40:29.651808","MEAN_MOTION":13.13469485,"ECCENTRICITY":0.00018428,"INCLINATION":87.905,"RA_OF_ASC_NODE":7.9773,"ARG_OF_PERICENTER":98.9178,"MEAN_ANOMALY":261.216,"EPHEMERIS_TYPE":0,"CLASSIFICATION_TYPE":"U","NORAD_CAT_ID":48044,"ELEMENT_SET_NO":999,"REV_AT_EPOCH":22200,"BSTAR":0.0007959104,"MEAN_MOTION_DOT":3.03e-6,"MEAN_MOTION_DDOT":0},{"OBJECT_NAME":"ONEWEB-0154","OBJECT_ID":"2021-025D","EPOCH":"2025-10-19T06:58:02.110080","MEAN_MOTION":13.13471582,"ECCENTRICITY":0.00018217,"INCLINATION":87.905,"RA_OF_ASC_NODE":8.0951,"ARG_OF_PERICENTER":103.1781,"MEAN_ANOMALY":256.9551,"EPHEMERIS_TYPE":0,"CLASSIFICATION_TYPE":"U","NORAD_CAT_ID":48045,"ELEMENT_SET_NO":999,"REV_AT_EPOCH":22188,"BSTAR":0.00046096016,"MEAN_MOTION_DOT":1.81e-6,"MEAN_MOTION_DDOT":0},{"OBJECT_NAME":"ONEWEB-0116","OBJECT_ID":"2021-025E","EPOCH":"2025-10-19T15:12:53.509824","MEAN_MOTION":13.13471212,"ECCENTRICITY":0.00016999,"INCLINATION":87.9053,"RA_OF_ASC_NODE":8.0104,"ARG_OF_PERICENTER":103.6712,"MEAN_ANOMALY":256.4607,"EPHEMERIS_TYPE":0,"CLASSIFICATION_TYPE":"U","NORAD_CAT_ID":48046,"ELEMENT_SET_NO":999,"REV_AT_EPOCH":22207,"BSTAR":-0.00070768211,"MEAN_MOTION_DOT":-2.46e-6,"MEAN_MOTION_DDOT":0}]
