ONEWEB-0137             
1 47283U 20100AB  25292.77359293 -.00000270  00000+0 -78570-3 0  9992
2 47283  87.8961  38.4083 0001758  94.6988 265.4342 13.12441898233034
ONEWEB-0138             
1 47284U 20100AC  25292.60004446  .00000454  00000+0  12274-2 0  9992
2 47284  87.8963  38.4522 0001908 105.3460 254.7880 13.12442666233095
ONEWEB-0139             
1 47285U 20100AD  25292.33414769 -.00000309  00000+0 -89288-3 0  9997
2 47285  87.8961  38.4951 0001700 102.4652 257.6667 13.12446058233130
ONEWEB-0140             
1 47286U 20100AE  25292.74603134  .00000480  00000+0  12994-2 0  9996
2 47286  87.8964  38.3990 0001829 104.1801 255.9531 13.12443741233152
ONEWEB-0141             
1 47287U 20100AF  25292.33387445 -.00000355  00000+0 -10220-2 0  9999
2 47287  87.8957  38.4932 0001753  90.0112 270.1218 13.12435884233088
ONEWEB-0142             
1 47288U 20100AG  25292.70398033 -.00000336  00000+0 -96893-3 0  9996
2 47288  87.8967  38.4396 0001979  92.2501 267.8855 13.12444092233126
ONEWEB-0143             
1 47289U 20100AH  25292.71357756 -.00000404  00000+0 -11585-2 0  9995
2 47289  87.8965  38.4338 0001667 101.7170 258.4146 13.12443967233100
ONEWEB-0144             
1 47290U 20100AJ  25292.30484908  .00000062  00000+0  13672-3 0  9990
2 47290  87.8956  38.4871 0002037 102.1888 257.9469 13.12446467232971
ONEWEB-0145             
1 47291U 20100AK  25292.73304995  .00000158  00000+0  40381-3 0  9998
2 47291  87.8966  38.4363 0001787 101.7468 258.3861 13.12444481233223
ONEWEB-0146             
1 47292U 20100AL  25292.72980497 -.00000011  00000+0 -65278-4 0  9998
2 47292  87.8966  38.4238 0001393 107.0556 253.0725 13.12444615233135
ONEWEB-0147             
1 47293U 20100AM  25292.69573441 -.00000347  00000+0 -10003-2 0  9998
2 47293  87.8961  38.4084 0001868 108.4255 251.7077 13.12441846233024
ONEWEB-0115             
1 48042U 21025A   25292.91157231  .00000131  00000+0  32444-3 0  9991
2 48042  87.9052   7.9616 0001782 100.8955 259.2375 13.13470917222056
ONEWEB-0152             
1 48043U 21025B   25292.23952268 -.00000250  00000+0 -72040-3 0  9990
2 48043  87.9041   8.1069 0001754 104.2083 255.9241 13.13469928221929
ONEWEB-0153             
1 48044U 21025C   25292.90312097  .00000303  00000+0  79591-3 0  9990
2 48044  87.9050   7.9773 0001842  98.9178 261.2160 13.13469485222009
ONEWEB-0154             
1 48045U 21025D   25292.29030220  .00000181  00000+0  46096-3 0  9996
2 48045  87.9050   8.0951 0001821 103.1781 256.9551 13.13471582221887
ONEWEB-0116             
1 48046U 21025E   25292.63395266 -.00000246  00000+0 -70768-3 0  9996
2 48046  87.9053   8.0104 0001699 103.6712 256.4607 13.13471212222072
